{"type": "FeatureCollection", "features": [{"type": "Feature", "properties": {"norad_id": 22490, "name": "SCD 1", "group": "resource", "lat": -9.118159550233784, "lon": 109.61792473524552, "alt_km": 760.2341016161708, "timestamp": "2025-12-14T05:42:18.113781+00:00", "meta": {"OBJECT_NAME": "SCD 1", "OBJECT_ID": "1993-009B", "EPOCH": "2025-12-13T12:57:14.164128", "MEAN_MOTION": 14.46000141, "ECCENTRICITY": 0.00418337, "INCLINATION": 24.9698, "RA_OF_ASC_NODE": 273.7492, "ARG_OF_PERICENTER": 333.5211, "MEAN_ANOMALY": 188.1101, "EPHEMERIS_TYPE": 0, "CLASSIFICATION_TYPE": "U", "NORAD_CAT_ID": 22490, "ELEMENT_SET_NO": 999, "REV_AT_EPOCH": 73421, "BSTAR": 0.00014828014, "MEAN_MOTION_DOT": 7.28e-06, "MEAN_MOTION_DDOT": 0}, "tle": {"line1": "1 22490U 93009B   25347.53974727  .00000728  00000+0  14828-3 0  9995", "line2": "2 22490  24.9698 273.7492 0041833 333.5211 188.1101 14.46000141734216"}}, "geometry": {"type": "Point", "coordinates": [109.61792473524552, -9.118159550233784]}}, {"type": "Feature", "properties": {"norad_id": 25397, "name": "TECHSAT 1B (GO-32)", "group": "resource", "lat": -71.73633657523715, "lon": 0.15728004687039954, "alt_km": 818.7476436726729, "timestamp": "2025-12-14T05:42:18.113818+00:00", "meta": {"OBJECT_NAME": "TECHSAT 1B (GO-32)", "OBJECT_ID": "1998-043D", "EPOCH": "2025-12-13T13:11:35.630016", "MEAN_MOTION": 14.24377325, "ECCENTRICITY": 0.00020323, "INCLINATION": 98.9921, "RA_OF_ASC_NODE": 330.7805, "ARG_OF_PERICENTER": 56.0464, "MEAN_ANOMALY": 304.0907, "EPHEMERIS_TYPE": 0, "CLASSIFICATION_TYPE": "U", "NORAD_CAT_ID": 25397, "ELEMENT_SET_NO": 999, "REV_AT_EPOCH": 42490, "BSTAR": 8.7860936e-05, "MEAN_MOTION_DOT": 1.57e-06, "MEAN_MOTION_DDOT": 0}, "tle": {"line1": "1 25397U 98043D   25347.54971794  .00000157  00000+0  87861-4 0  9993", "line2": "2 25397  98.9921 330.7805 0002032  56.0464 304.0907 14.24377325424904"}}, "geometry": {"type": "Point", "coordinates": [0.15728004687039954, -71.73633657523715]}}, {"type": "Feature", "properties": {"norad_id": 25504, "name": "SCD 2", "group": "resource", "lat": -19.19000249027237, "lon": 1.0002090075553713, "alt_km": 742.5033290963929, "timestamp": "2025-12-14T05:42:18.113835+00:00", "meta": {"OBJECT_NAME": "SCD 2", "OBJECT_ID": "1998-060A", "EPOCH": "2025-12-13T12:13:53.570784", "MEAN_MOTION": 14.45424195, "ECCENTRICITY": 0.00166813, "INCLINATION": 24.9934, "RA_OF_ASC_NODE": 137.1484, "ARG_OF_PERICENTER": 321.8647, "MEAN_ANOMALY": 73.2227, "EPHEMERIS_TYPE": 0, "CLASSIFICATION_TYPE": "U", "NORAD_CAT_ID": 25504, "ELEMENT_SET_NO": 999, "REV_AT_EPOCH": 43343, "BSTAR": 0.00012024336, "MEAN_MOTION_DOT": 6.13e-06, "MEAN_MOTION_DDOT": 0}, "tle": {"line1": "1 25504U 98060A   25347.50964781  .00000613  00000+0  12024-3 0  9991", "line2": "2 25504  24.9934 137.1484 0016681 321.8647  73.2227 14.45424195433439"}}, "geometry": {"type": "Point", "coordinates": [1.0002090075553713, -19.19000249027237]}}, {"type": "Feature", "properties": {"norad_id": 25757, "name": "DLR-TUBSAT", "group": "resource", "lat": -63.57030433868435, "lon": -9.354344959715556, "alt_km": 728.0042179734264, "timestamp": "2025-12-14T05:42:18.113848+00:00", "meta": {"OBJECT_NAME": "DLR-TUBSAT", "OBJECT_ID": "1999-029B", "EPOCH": "2025-12-13T13:28:10.799040", "MEAN_MOTION": 14.52358086, "ECCENTRICITY": 0.0013954, "INCLINATION": 98.6564, "RA_OF_ASC_NODE": 332.1003, "ARG_OF_PERICENTER": 190.2558, "MEAN_ANOMALY": 169.8354, "EPHEMERIS_TYPE": 0, "CLASSIFICATION_TYPE": "U", "NORAD_CAT_ID": 25757, "ELEMENT_SET_NO": 999, "REV_AT_EPOCH": 40630, "BSTAR": 6.7662771e-05, "MEAN_MOTION_DOT": 2.27e-06, "MEAN_MOTION_DDOT": 0}, "tle": {"line1": "1 25757U 99029B   25347.56123610  .00000227  00000+0  67663-4 0  9992", "line2": "2 25757  98.6564 332.1003 0013954 190.2558 169.8354 14.52358086406301"}}, "geometry": {"type": "Point", "coordinates": [-9.354344959715556, -63.57030433868435]}}, {"type": "Feature", "properties": {"norad_id": 25994, "name": "TERRA", "group": "resource", "lat": 43.45335950500956, "lon": 32.23488529672854, "alt_km": 684.8887032363473, "timestamp": "2025-12-14T05:42:18.113860+00:00", "meta": {"OBJECT_NAME": "TERRA", "OBJECT_ID": "1999-068A", "EPOCH": "2025-12-13T16:51:39.481056", "MEAN_MOTION": 14.60903286, "ECCENTRICITY": 0.00036, "INCLINATION": 97.9749, "RA_OF_ASC_NODE": 39.3517, "ARG_OF_PERICENTER": 92.5015, "MEAN_ANOMALY": 18.6853, "EPHEMERIS_TYPE": 0, "CLASSIFICATION_TYPE": "U", "NORAD_CAT_ID": 25994, "ELEMENT_SET_NO": 999, "REV_AT_EPOCH": 38252, "BSTAR": 0.00015543692, "MEAN_MOTION_DOT": 7.16e-06, "MEAN_MOTION_DDOT": 0}, "tle": {"line1": "1 25994U 99068A   25347.70254029  .00000716  00000+0  15544-3 0  9996", "line2": "2 25994  97.9749  39.3517 0003600  92.5015  18.6853 14.60903286382525"}}, "geometry": {"type": "Point", "coordinates": [32.23488529672854, 43.45335950500956]}}, {"type": "Feature", "properties": {"norad_id": 27004, "name": "MAROC-TUBSAT", "group": "resource", "lat": -78.98016599620601, "lon": -85.75364609971707, "alt_km": 992.0127629924345, "timestamp": "2025-12-14T05:42:18.113873+00:00", "meta": {"OBJECT_NAME": "MAROC-TUBSAT", "OBJECT_ID": "2001-056D", "EPOCH": "2025-12-13T11:09:30.382272", "MEAN_MOTION": 13.70252934, "ECCENTRICITY": 0.00191051, "INCLINATION": 99.7912, "RA_OF_ASC_NODE": 155.9226, "ARG_OF_PERICENTER": 258.2182, "MEAN_ANOMALY": 156.6183, "EPHEMERIS_TYPE": 0, "CLASSIFICATION_TYPE": "U", "NORAD_CAT_ID": 27004, "ELEMENT_SET_NO": 999, "REV_AT_EPOCH": 20075, "BSTAR": 4.6062908e-05, "MEAN_MOTION_DOT": -6e-08, "MEAN_MOTION_DDOT": 0}, "tle": {"line1": "1 27004U 01056D   25347.46493498 -.00000006  00000+0  46063-4 0  9992", "line2": "2 27004  99.7912 155.9226 0019105 258.2182 156.6183 13.70252934200756"}}, "geometry": {"type": "Point", "coordinates": [-85.75364609971707, -78.98016599620601]}}, {"type": "Feature", "properties": {"norad_id": 27424, "name": "AQUA", "group": "resource", "lat": -73.64072625093961, "lon": -20.620378227064343, "alt_km": 695.4265148996737, "timestamp": "2025-12-14T05:42:18.113885+00:00", "meta": {"OBJECT_NAME": "AQUA", "OBJECT_ID": "2002-022A", "EPOCH": "2025-12-13T16:04:43.741344", "MEAN_MOTION": 14.61812847, "ECCENTRICITY": 0.00011561, "INCLINATION": 98.4036, "RA_OF_ASC_NODE": 308.5641, "ARG_OF_PERICENTER": 114.4382, "MEAN_ANOMALY": 63.5926, "EPHEMERIS_TYPE": 0, "CLASSIFICATION_TYPE": "U", "NORAD_CAT_ID": 27424, "ELEMENT_SET_NO": 999, "REV_AT_EPOCH": 25616, "BSTAR": 0.00034627403, "MEAN_MOTION_DOT": 1.68e-05, "MEAN_MOTION_DDOT": 0}, "tle": {"line1": "1 27424U 02022A   25347.66995071  .00001680  00000+0  34627-3 0  9998", "line2": "2 27424  98.4036 308.5641 0001156 114.4382  63.5926 14.61812847256167"}}, "geometry": {"type": "Point", "coordinates": [-20.620378227064343, -73.64072625093961]}}, {"type": "Feature", "properties": {"norad_id": 28051, "name": "IRS-P6 (RESOURCESAT-1)", "group": "resource", "lat": 9.550019164284281, "lon": 27.181989698785287, "alt_km": 817.7293034715331, "timestamp": "2025-12-14T05:42:18.113897+00:00", "meta": {"OBJECT_NAME": "IRS-P6 (RESOURCESAT-1)", "OBJECT_ID": "2003-046A", "EPOCH": "2025-12-13T16:48:08.779104", "MEAN_MOTION": 14.36075799, "ECCENTRICITY": 0.0064206, "INCLINATION": 98.218, "RA_OF_ASC_NODE": 28.0625, "ARG_OF_PERICENTER": 177.7802, "MEAN_ANOMALY": 294.4049, "EPHEMERIS_TYPE": 0, "CLASSIFICATION_TYPE": "U", "NORAD_CAT_ID": 28051, "ELEMENT_SET_NO": 999, "REV_AT_EPOCH": 15390, "BSTAR": 0.00013837172, "MEAN_MOTION_DOT": 3.71e-06, "MEAN_MOTION_DDOT": 0}, "tle": {"line1": "1 28051U 03046A   25347.70010161  .00000371  00000+0  13837-3 0  9991", "line2": "2 28051  98.2180  28.0625 0064206 177.7802 294.4049 14.36075799153900"}}, "geometry": {"type": "Point", "coordinates": [27.181989698785287, 9.550019164284281]}}, {"type": "Feature", "properties": {"norad_id": 28220, "name": "SHIYAN-1 (SY-1)", "group": "resource", "lat": 19.15733686696654, "lon": 47.101391756023666, "alt_km": 479.54088702195895, "timestamp": "2025-12-14T05:42:18.113908+00:00", "meta": {"OBJECT_NAME": "SHIYAN-1 (SY-1)", "OBJECT_ID": "2004-012A", "EPOCH": "2025-12-13T15:28:38.372448", "MEAN_MOTION": 15.28180516, "ECCENTRICITY": 0.00055998, "INCLINATION": 97.8939, "RA_OF_ASC_NODE": 49.2364, "ARG_OF_PERICENTER": 321.933, "MEAN_ANOMALY": 38.1512, "EPHEMERIS_TYPE": 0, "CLASSIFICATION_TYPE": "U", "NORAD_CAT_ID": 28220, "ELEMENT_SET_NO": 999, "REV_AT_EPOCH": 18270, "BSTAR": 0.0005430268, "MEAN_MOTION_DOT": 0.00014854, "MEAN_MOTION_DDOT": 0}, "tle": {"line1": "1 28220U 04012A   25347.64488857  .00014854  00000+0  54303-3 0  9991", "line2": "2 28220  97.8939  49.2364 0005599 321.9330  38.1512 15.28180516182703"}}, "geometry": {"type": "Point", "coordinates": [47.101391756023666, 19.15733686696654]}}, {"type": "Feature", "properties": {"norad_id": 28376, "name": "AURA", "group": "resource", "lat": 49.939570285008664, "lon": -71.54844262257022, "alt_km": 684.8606756047957, "timestamp": "2025-12-14T05:42:18.113920+00:00", "meta": {"OBJECT_NAME": "AURA", "OBJECT_ID": "2004-026A", "EPOCH": "2025-12-13T14:40:49.012032", "MEAN_MOTION": 14.60950176, "ECCENTRICITY": 0.00012802, "INCLINATION": 98.3182, "RA_OF_ASC_NODE": 297.8424, "ARG_OF_PERICENTER": 94.4506, "MEAN_ANOMALY": 265.6841, "EPHEMERIS_TYPE": 0, "CLASSIFICATION_TYPE": "U", "NORAD_CAT_ID": 28376, "ELEMENT_SET_NO": 999, "REV_AT_EPOCH": 13911, "BSTAR": 0.00034437907, "MEAN_MOTION_DOT": 1.639e-05, "MEAN_MOTION_DDOT": 0}, "tle": {"line1": "1 28376U 04026A   25347.61167838  .00001639  00000+0  34438-3 0  9992", "line2": "2 28376  98.3182 297.8424 0001280  94.4506 265.6841 14.60950176139110"}}, "geometry": {"type": "Point", "coordinates": [-71.54844262257022, 49.939570285008664]}}]}